OBJECT B                
1 51825U 22019B   24125.87239397  .00010449  00000+0  47690-3 0  9993
2 51825  97.4314 197.7737 0015078  37.2861 322.9418 15.20693444120640
